NORAD_CAT_ID,OBJECT_NAME,OBJECT_TYPE,EPOCH,MEAN_MOTION,ECCENTRICITY,INCLINATION,RA_OF_ASC_NODE,ARG_OF_PERICENTER,MEAN_ANOMALY,BSTAR,MEAN_MOTION_DOT,MEAN_MOTION_DDOT,TLE_LINE0,TLE_LINE1,TLE_LINE2,SEMIMAJOR_AXIS,PERIOD,APOGEE,PERIGEE,DECAYED
49165.0,STARLINK-3052,PAYLOAD,2023-12-27 11:29:47,14.98371359,0.0002657,69.9986,159.6258,254.5712,105.5154,-0.00077693,-9.361e-05,0.0,0 STARLINK-3052,1 49165U 21082AM  23361.47902162 -.00009361  00000-0 -77693-3 0  9990,2 49165  69.9986 159.6258 0002657 254.5712 105.5154 14.98371359126871,6950.065,96.104,573.777,570.083,0.0
49165.0,STARLINK-3052,PAYLOAD,2023-12-27 14:42:03,14.98374632,0.0002613,69.999,159.2891,256.0356,104.0513,-0.00076961,-9.274e-05,0.0,0 STARLINK-3052,1 49165U 21082AM  23361.61253643 -.00009274  00000-0 -76961-3 0  9999,2 49165  69.9990 159.2891 0002613 256.0356 104.0513 14.98374632126889,6950.055,96.104,573.736,570.104,0.0
49165.0,STARLINK-3052,PAYLOAD,2023-12-27 19:30:27,14.9833317,0.000299,69.9996,158.784,270.7668,89.3149,4.5328e-05,4.48e-06,0.0,0 STARLINK-3052,1 49165U 21082AM  23361.81282059  .00000448  00000-0  45328-4 0  9990,2 49165  69.9996 158.7840 0002990 270.7668  89.3149 14.98333170126927,6950.183,96.107,574.126,569.97,0.0
49165.0,STARLINK-3052,PAYLOAD,2023-12-27 21:06:35,14.98333569,0.0002976,69.9996,158.6155,269.8945,90.1873,5.0316e-05,5.07e-06,0.0,0 STARLINK-3052,1 49165U 21082AM  23361.87957986  .00000507  00000-0  50316-4 0  9993,2 49165  69.9996 158.6155 0002976 269.8945  90.1873 14.98333569126922,6950.182,96.107,574.115,569.978,0.0
49165.0,STARLINK-3052,PAYLOAD,2023-12-28 14:44:04,14.98324762,0.0003005,69.999,156.7627,264.2098,95.8718,0.00010975,1.217e-05,0.0,0 STARLINK-3052,1 49165U 21082AM  23362.61394263  .00001217  00000-0  10975-3 0  9994,2 49165  69.9990 156.7627 0003005 264.2098  95.8718 14.98324762127039,6950.209,96.107,574.163,569.986,0.0
49165.0,STARLINK-3052,PAYLOAD,2023-12-28 19:32:28,14.98327477,0.0002985,69.9995,156.259,265.5327,94.5491,0.00013458,1.513e-05,0.0,0 STARLINK-3052,1 49165U 21082AM  23362.81422160  .00001513  00000-0  13458-3 0  9992,2 49165  69.9995 156.2590 0002985 265.5327  94.5491 14.98327477127077,6950.201,96.107,574.14,569.991,0.0
49165.0,STARLINK-3052,PAYLOAD,2023-12-29 14:46:05,14.98329718,0.000278,70.0001,154.2398,263.4104,96.6738,4.211e-05,4.1e-06,0.0,0 STARLINK-3052,1 49165U 21082AM  23363.61534337  .00000410  00000-0  42110-4 0  9994,2 49165  70.0001 154.2398 0002780 263.4104  96.6738 14.98329718127184,6950.194,96.107,573.991,570.127,0.0
49165.0,STARLINK-3052,PAYLOAD,2023-12-29 19:34:29,14.98331779,0.0002977,69.9996,153.7345,268.0029,92.0789,5.5958e-05,5.75e-06,0.0,0 STARLINK-3052,1 49165U 21082AM  23363.81562180  .00000575  00000-0  55958-4 0  9999,2 49165  69.9996 153.7345 0002977 268.0029  92.0789 14.98331779127226,6950.187,96.107,574.121,569.983,0.0
49165.0,STARLINK-3052,PAYLOAD,2023-12-30 14:48:06,14.98329063,0.0003025,69.9996,151.715,267.9542,92.127,1.4773e-05,8.3e-07,0.0,0 STARLINK-3052,1 49165U 21082AM  23364.61674470  .00000083  00000-0  14773-4 0  9998,2 49165  69.9996 151.7150 0003025 267.9542  92.1270 14.98329063127332,6950.196,96.107,574.163,569.958,0.0
49165.0,STARLINK-3052,PAYLOAD,2023-12-30 19:36:30,14.98331602,0.0002983,69.9998,151.2103,266.1743,93.9075,4.1046e-05,3.97e-06,0.0,0 STARLINK-3052,1 49165U 21082AM  23364.81702228  .00000397  00000-0  41046-4 0  9994,2 49165  69.9998 151.2103 0002983 266.1743  93.9075 14.98331602127371,6950.188,96.107,574.126,569.98,0.0
49165.0,STARLINK-3052,PAYLOAD,2023-12-31 19:38:31,14.98328848,0.0002878,70.0001,148.6861,264.995,95.088,2.4618e-05,2.01e-06,0.0,0 STARLINK-3052,1 49165U 21082AM  23365.81842485  .00000201  00000-0  24618-4 0  9995,2 49165  70.0001 148.6861 0002878 264.9950  95.0880 14.98328848127521,6950.196,96.107,574.062,570.061,0.0
49165.0,STARLINK-3052,PAYLOAD,2024-01-01 14:52:08,14.98332282,0.0002984,69.9999,146.6661,265.9431,94.1387,5.3876e-05,5.5e-06,0.0,0 STARLINK-3052,1 49165U 21082AM  24001.61954140  .00000550  00000-0  53876-4 0  9998,2 49165  69.9999 146.6661 0002984 265.9431  94.1387 14.98332282127634,6950.186,96.107,574.125,569.977,0.0
49165.0,STARLINK-3052,PAYLOAD,2024-01-01 19:40:32,14.98335424,0.0002971,69.9999,146.1608,266.4606,93.6213,8.7875e-05,9.56e-06,0.0,0 STARLINK-3052,1 49165U 21082AM  24001.81981818  .00000956  00000-0  87875-4 0  9998,2 49165  69.9999 146.1608 0002971 266.4606  93.6213 14.98335424127673,6950.176,96.107,574.106,569.976,0.0
49165.0,STARLINK-3052,PAYLOAD,2024-01-02 14:54:09,14.98330535,0.000292,70.0,144.1403,268.1375,91.945,5.8007e-05,5.99e-06,0.0,0 STARLINK-3052,1 49165U 21082AM  24002.62094111  .00000599  00000-0  58007-4 0  9997,2 49165  70.0000 144.1403 0002920 268.1375  91.9450 14.98330535127780,6950.191,96.107,574.086,570.027,0.0
49165.0,STARLINK-3052,PAYLOAD,2024-01-02 19:42:33,14.98331996,0.000282,70.0002,143.6352,266.9897,93.0939,7.6689e-05,8.22e-06,0.0,0 STARLINK-3052,1 49165U 21082AM  24002.82121971  .00000822  00000-0  76689-4 0  9999,2 49165  70.0002 143.6352 0002820 266.9897  93.0939 14.98331996127825,6950.187,96.107,574.012,570.092,0.0
49165.0,STARLINK-3052,PAYLOAD,2024-01-03 13:20:02,14.98328075,0.00026,70.0006,141.786,241.9731,118.1166,-2.6296e-05,-4.07e-06,0.0,0 STARLINK-3052,1 49165U 21082AM  24003.55558475 -.00000407  00000-0 -26296-4 0  9993,2 49165  70.0006 141.7860 0002600 241.9731 118.1166 14.98328075127924,6950.199,96.107,573.871,570.257,0.0
49165.0,STARLINK-3052,PAYLOAD,2024-01-03 18:08:26,14.98328491,0.0003045,69.9997,141.2791,266.9029,93.1782,-3.2626e-05,-4.82e-06,0.0,0 STARLINK-3052,1 49165U 21082AM  24003.75586498 -.00000482  00000-0 -32626-4 0  9998,2 49165  69.9997 141.2791 0003045 266.9029  93.1782 14.98328491127961,6950.198,96.107,574.179,569.946,0.0
49165.0,STARLINK-3052,PAYLOAD,2024-01-04 13:22:03,14.98328878,0.0003098,69.9997,139.2588,269.7745,90.3059,3.1355e-05,2.81e-06,0.0,0 STARLINK-3052,1 49165U 21082AM  24004.55698298  .00000281  00000-0  31355-4 0  9992,2 49165  69.9997 139.2588 0003098 269.7745  90.3059 14.98328878128074,6950.196,96.107,574.215,569.908,0.0
49165.0,STARLINK-3052,PAYLOAD,2024-01-04 18:10:27,14.98331856,0.0003044,69.9999,138.7542,269.9381,90.1429,6.3204e-05,6.61e-06,0.0,0 STARLINK-3052,1 49165U 21082AM  24004.75726043  .00000661  00000-0  63204-4 0  9994,2 49165  69.9999 138.7542 0003044 269.9381  90.1429 14.98331856128113,6950.187,96.107,574.168,569.937,0.0
49165.0,STARLINK-3052,PAYLOAD,2024-01-05 11:47:56,14.98325471,0.000285,70.0002,136.9033,263.9307,96.1528,5.8855e-05,6.09e-06,0.0,0 STARLINK-3052,1 49165U 21082AM  24005.49162534  .00000609  00000-0  58855-4 0  9993,2 49165  70.0002 136.9033 0002850 263.9307  96.1528 14.98325471128226,6950.207,96.107,574.053,570.091,0.0
49165.0,STARLINK-3052,PAYLOAD,2024-01-05 13:24:04,14.98304587,0.0002854,70.0003,136.7348,260.3181,99.7656,0.00041213,4.825e-05,0.0,0 STARLINK-3052,1 49165U 21082AM  24005.55838864  .00004825  00000-0  41213-3 0  9999,2 49165  70.0003 136.7348 0002854 260.3181  99.7656 14.98304587128225,6950.271,96.109,574.12,570.153,0.0
49165.0,STARLINK-3052,PAYLOAD,2024-01-05 18:12:28,14.98327029,0.0002832,70.0003,136.2301,264.2559,95.8277,7.2609e-05,7.73e-06,0.0,0 STARLINK-3052,1 49165U 21082AM  24005.75866476  .00000773  00000-0  72609-4 0  9993,2 49165  70.0003 136.2301 0002832 264.2559  95.8277 14.98327029128252,6950.202,96.107,574.035,570.099,0.0
49165.0,STARLINK-3052,PAYLOAD,2024-01-06 11:49:56,14.98333712,0.0002874,70.0003,134.3786,265.876,94.2071,5.1768e-05,5.25e-06,0.0,0 STARLINK-3052,1 49165U 21082AM  24006.49302064  .00000525  00000-0  51768-4 0  9991,2 49165  70.0003 134.3786 0002874 265.8760  94.2071 14.98333712128379,6950.181,96.107,574.044,570.049,0.0
49165.0,STARLINK-3052,PAYLOAD,2024-01-06 18:14:29,14.98335186,0.0002877,70.0003,133.7055,266.1611,93.9219,6.5201e-05,6.85e-06,0.0,0 STARLINK-3052,1 49165U 21082AM  24006.76005884  .00000685  00000-0  65201-4 0  9995,2 49165  70.0003 133.7055 0002877 266.1611  93.9219 14.98335186128404,6950.177,96.107,574.041,570.042,0.0
49165.0,STARLINK-3052,PAYLOAD,2024-01-07 11:51:58,14.98330848,0.000292,70.0004,131.8544,263.5258,96.5569,2.7493e-05,2.35e-06,0.0,0 STARLINK-3052,1 49165U 21082AM  24007.49442168  .00000235  00000-0  27493-4 0  9998,2 49165  70.0004 131.8544 0002920 263.5258  96.5569 14.98330848128524,6950.19,96.107,574.085,570.026,0.0
49165.0,STARLINK-3052,PAYLOAD,2024-01-07 13:28:06,14.98329809,0.0002905,70.0007,131.6863,263.6339,96.4489,4.6969e-05,4.67e-06,0.0,0 STARLINK-3052,1 49165U 21082AM  24007.56118258  .00000467  00000-0  46969-4 0  9992,2 49165  70.0007 131.6863 0002905 263.6339  96.4489 14.98329809128528,6950.193,96.107,574.078,570.039,0.0
49165.0,STARLINK-3052,PAYLOAD,2024-01-07 18:16:30,14.98335036,0.000269,70.0004,131.1805,254.3929,105.6934,2.2719e-05,1.78e-06,0.0,0 STARLINK-3052,1 49165U 21082AM  24007.76145939  .00000178  00000-0  22719-4 0  9996,2 49165  70.0004 131.1805 0002690 254.3929 105.6934 14.98335036128559,6950.177,96.107,573.912,570.173,0.0
49165.0,STARLINK-3052,PAYLOAD,2024-01-08 11:53:58,14.98376061,0.0002893,70.0005,129.329,260.4048,99.6784,-0.00072896,-8.79e-05,0.0,0 STARLINK-3052,1 49165U 21082AM  24008.49581305 -.00008790  00000-0 -72896-3 0  9998,2 49165  70.0005 129.3290 0002893 260.4048  99.6784 14.98376061128673,6950.05,96.104,573.926,569.905,0.0
49165.0,STARLINK-3052,PAYLOAD,2024-01-08 13:30:06,14.9833264,0.0002845,70.0007,129.1613,261.837,98.2466,1.7375e-05,1.14e-06,0.0,0 STARLINK-3052,1 49165U 21082AM  24008.56257933  .00000114  00000-0  17375-4 0  9995,2 49165  70.0007 129.1613 0002845 261.8370  98.2466 14.98332640128679,6950.185,96.107,574.027,570.072,0.0
49165.0,STARLINK-3052,PAYLOAD,2024-01-08 18:18:29,14.98373865,0.0002865,70.0006,128.6561,260.1927,99.8909,-0.00065244,-7.878e-05,0.0,0 STARLINK-3052,1 49165U 21082AM  24008.76284607 -.00007878  00000-0 -65244-3 0  9998,2 49165  70.0006 128.6561 0002865 260.1927  99.8909 14.98373865128703,6950.057,96.104,573.913,569.931,0.0
